[
    {
        "Altitude(m)": 710602.5287905532,
        "Argument of Periapsis(deg)": 0.009112096949301655,
        "Eccentricity": 0.0,
        "Inclination(deg)": 45.0,
        "Latitude(deg)": -27.118310320495276,
        "Longitude(deg)": 133.76438572305628,
        "Mean Anomaly(deg)": -39.86432668201532,
        "RAAN(deg)": 264.9913984468334,
        "Satellite Name": "Constellation 1 1185",
        "Satellite Number": 1185,
        "Semi-Major Axis(m)": 7083131.272910544,
        "Time(s)": 152
    },
    {
        "Altitude(m)": 710588.6732737232,
        "Argument of Periapsis(deg)": 0.009172044955547059,
        "Eccentricity": 0.0,
        "Inclination(deg)": 45.0,
        "Latitude(deg)": -27.081243071395882,
        "Longitude(deg)": 133.81419845086418,
        "Mean Anomaly(deg)": -39.803625541765356,
        "RAAN(deg)": 264.99134185766786,
        "Satellite Name": "Constellation 1 1185",
        "Satellite Number": 1185,
        "Semi-Major Axis(m)": 7083131.272910544,
        "Time(s)": 153
    },
    {
        "Altitude(m)": 710574.8175576328,
        "Argument of Periapsis(deg)": 0.009231992961792466,
        "Eccentricity": 0.0,
        "Inclination(deg)": 45.0,
        "Latitude(deg)": -27.044154882029073,
        "Longitude(deg)": 133.86397584257338,
        "Mean Anomaly(deg)": -39.74292440151552,
        "RAAN(deg)": 264.9912852685023,
        "Satellite Name": "Constellation 1 1185",
        "Satellite Number": 1185,
        "Semi-Major Axis(m)": 7083131.272910544,
        "Time(s)": 154
    },
    {
        "Altitude(m)": 710560.9616900479,
        "Argument of Periapsis(deg)": 0.009291940968037872,
        "Eccentricity": 0.0,
        "Inclination(deg)": 45.0,
        "Latitude(deg)": -27.007045798565688,
        "Longitude(deg)": 133.9137179581175,
        "Mean Anomaly(deg)": -39.682223261265655,
        "RAAN(deg)": 264.99122867933676,
        "Satellite Name": "Constellation 1 1185",
        "Satellite Number": 1185,
        "Semi-Major Axis(m)": 7083131.272910544,
        "Time(s)": 155
    },
    {
        "Altitude(m)": 710547.1057187102,
        "Argument of Periapsis(deg)": 0.009351888974283276,
        "Eccentricity": 0.0,
        "Inclination(deg)": 45.0,
        "Latitude(deg)": -26.96991586710953,
        "Longitude(deg)": 133.96342468934742,
        "Mean Anomaly(deg)": -39.621522121015694,
        "RAAN(deg)": 264.9911720901712,
        "Satellite Name": "Constellation 1 1185",
        "Satellite Number": 1185,
        "Semi-Major Axis(m)": 7083131.272910544,
        "Time(s)": 156
    },
    {
        "Altitude(m)": 710533.2496913598,
        "Argument of Periapsis(deg)": 0.00941183698052868,
        "Eccentricity": 0.0,
        "Inclination(deg)": 45.0,
        "Latitude(deg)": -26.9327651336983,
        "Longitude(deg)": 134.01309643241794,
        "Mean Anomaly(deg)": -39.560820980765754,
        "RAAN(deg)": 264.9911155010056,
        "Satellite Name": "Constellation 1 1185",
        "Satellite Number": 1185,
        "Semi-Major Axis(m)": 7083131.272910544,
        "Time(s)": 157
    },
    {
        "Altitude(m)": 710519.3936557224,
        "Argument of Periapsis(deg)": 0.009471784986774088,
        "Eccentricity": 0.0,
        "Inclination(deg)": 45.0,
        "Latitude(deg)": -26.895593644302554,
        "Longitude(deg)": 134.06273307920654,
        "Mean Anomaly(deg)": -39.50011984051594,
        "RAAN(deg)": 264.99105891184,
        "Satellite Name": "Constellation 1 1185",
        "Satellite Number": 1185,
        "Semi-Major Axis(m)": 7083131.272910544,
        "Time(s)": 158
    },
    {
        "Altitude(m)": 710505.5376595155,
        "Argument of Periapsis(deg)": 0.009531732993019492,
        "Eccentricity": 0.0,
        "Inclination(deg)": 45.0,
        "Latitude(deg)": -26.858401444826118,
        "Longitude(deg)": 134.11233468970073,
        "Mean Anomaly(deg)": -39.43941870026601,
        "RAAN(deg)": 264.99100232267443,
        "Satellite Name": "Constellation 1 1185",
        "Satellite Number": 1185,
        "Semi-Major Axis(m)": 7083131.272910544,
        "Time(s)": 159
    },
    {
        "Altitude(m)": 710491.6817504364,
        "Argument of Periapsis(deg)": 0.009591680999264898,
        "Eccentricity": 0.0,
        "Inclination(deg)": 45.0,
        "Latitude(deg)": -26.82118858110659,
        "Longitude(deg)": 134.16190132390005,
        "Mean Anomaly(deg)": -39.37871756001604,
        "RAAN(deg)": 264.9909457335089,
        "Satellite Name": "Constellation 1 1185",
        "Satellite Number": 1185,
        "Semi-Major Axis(m)": 7083131.272910544,
        "Time(s)": 160
    },
    {
        "Altitude(m)": 710477.825976179,
        "Argument of Periapsis(deg)": 0.009651629005510304,
        "Eccentricity": 0.0,
        "Inclination(deg)": 45.0,
        "Latitude(deg)": -26.783955098915126,
        "Longitude(deg)": 134.21143304181604,
        "Mean Anomaly(deg)": -39.31801641976621,
        "RAAN(deg)": 264.9908891443433,
        "Satellite Name": "Constellation 1 1185",
        "Satellite Number": 1185,
        "Semi-Major Axis(m)": 7083131.272910544,
        "Time(s)": 161
    },
    {
        "Altitude(m)": 710463.9703844171,
        "Argument of Periapsis(deg)": 0.00971157701175571,
        "Eccentricity": 0.0,
        "Inclination(deg)": 45.0,
        "Latitude(deg)": -26.74670104395642,
        "Longitude(deg)": 134.26092990347206,
        "Mean Anomaly(deg)": -39.25731527951635,
        "RAAN(deg)": 264.99083255517775,
        "Satellite Name": "Constellation 1 1185",
        "Satellite Number": 1185,
        "Semi-Major Axis(m)": 7083131.272910544,
        "Time(s)": 162
    },
    {
        "Altitude(m)": 710450.1150228196,
        "Argument of Periapsis(deg)": 0.009771525018001118,
        "Eccentricity": 0.0,
        "Inclination(deg)": 45.0,
        "Latitude(deg)": -26.709426461868702,
        "Longitude(deg)": 134.31039180080563,
        "Mean Anomaly(deg)": -39.196614139266366,
        "RAAN(deg)": 264.99077596601217,
        "Satellite Name": "Constellation 1 1185",
        "Satellite Number": 1185,
        "Semi-Major Axis(m)": 7083131.272910544,
        "Time(s)": 163
    },
    {
        "Altitude(m)": 710436.2599390395,
        "Argument of Periapsis(deg)": 0.00983147302424652,
        "Eccentricity": 0.0,
        "Inclination(deg)": 45.0,
        "Latitude(deg)": -26.67213139822482,
        "Longitude(deg)": 134.3598191300557,
        "Mean Anomaly(deg)": -39.1359129990165,
        "RAAN(deg)": 264.9907193768466,
        "Satellite Name": "Constellation 1 1185",
        "Satellite Number": 1185,
        "Semi-Major Axis(m)": 7083131.272910544,
        "Time(s)": 164
    },
    {
        "Altitude(m)": 710422.4051807147,
        "Argument of Periapsis(deg)": 0.009891421030491928,
        "Eccentricity": 0.0,
        "Inclination(deg)": 45.0,
        "Latitude(deg)": -26.634815898530764,
        "Longitude(deg)": 134.40921178318092,
        "Mean Anomaly(deg)": -39.07521185876664,
        "RAAN(deg)": 264.99066278768106,
        "Satellite Name": "Constellation 1 1185",
        "Satellite Number": 1185,
        "Semi-Major Axis(m)": 7083131.272910544,
        "Time(s)": 165
    },
    {
        "Altitude(m)": 710408.5507954772,
        "Argument of Periapsis(deg)": 0.009951369036737332,
        "Eccentricity": 0.0,
        "Inclination(deg)": 45.0,
        "Latitude(deg)": -26.597480008226675,
        "Longitude(deg)": 134.458569820247,
        "Mean Anomaly(deg)": -39.0145107185167,
        "RAAN(deg)": 264.9906061985155,
        "Satellite Name": "Constellation 1 1185",
        "Satellite Number": 1185,
        "Semi-Major Axis(m)": 7083131.272910544,
        "Time(s)": 166
    },
    {
        "Altitude(m)": 710394.6968309353,
        "Argument of Periapsis(deg)": 0.010011317042982738,
        "Eccentricity": 0.0,
        "Inclination(deg)": 45.0,
        "Latitude(deg)": -26.560123772687007,
        "Longitude(deg)": 134.50789330132898,
        "Mean Anomaly(deg)": -38.953809578266736,
        "RAAN(deg)": 264.9905496093499,
        "Satellite Name": "Constellation 1 1185",
        "Satellite Number": 1185,
        "Semi-Major Axis(m)": 7083131.272910544,
        "Time(s)": 167
    },
    {
        "Altitude(m)": 710380.8433346871,
        "Argument of Periapsis(deg)": 0.010071265049228144,
        "Eccentricity": 0.0,
        "Inclination(deg)": 45.0,
        "Latitude(deg)": -26.522747237220322,
        "Longitude(deg)": 134.557182286511,
        "Mean Anomaly(deg)": -38.89310843801695,
        "RAAN(deg)": 264.9904930201843,
        "Satellite Name": "Constellation 1 1185",
        "Satellite Number": 1185,
        "Semi-Major Axis(m)": 7083131.272910544,
        "Time(s)": 168
    },
    {
        "Altitude(m)": 710366.9903543253,
        "Argument of Periapsis(deg)": 0.01013121305547355,
        "Eccentricity": 0.0,
        "Inclination(deg)": 45.0,
        "Latitude(deg)": -26.48535044706916,
        "Longitude(deg)": 134.60643683588677,
        "Mean Anomaly(deg)": -38.83240729776699,
        "RAAN(deg)": 264.99043643101874,
        "Satellite Name": "Constellation 1 1185",
        "Satellite Number": 1185,
        "Semi-Major Axis(m)": 7083131.272910544,
        "Time(s)": 169
    },
    {
        "Altitude(m)": 710353.1379374214,
        "Argument of Periapsis(deg)": 0.010191161061718957,
        "Eccentricity": 0.0,
        "Inclination(deg)": 45.0,
        "Latitude(deg)": -26.447933447410765,
        "Longitude(deg)": 134.65565700955753,
        "Mean Anomaly(deg)": -38.77170615751706,
        "RAAN(deg)": 264.9903798418532,
        "Satellite Name": "Constellation 1 1185",
        "Satellite Number": 1185,
        "Semi-Major Axis(m)": 7083131.272910544,
        "Time(s)": 170
    }
]